[{"OBJECT_NAME":"UM5-RIBAT","OBJECT_ID":"2024-149CQ","EPOCH":"2026-04-04T19:14:56.428800","MEAN_MOTION":15.00676489,"ECCENTRICITY":7.68e-5,"INCLINATION":97.6705,"RA_OF_ASC_NODE":173.586,"ARG_OF_PERICENTER":73.6568,"MEAN_ANOMALY":286.4741,"EPHEMERIS_TYPE":0,"CLASSIFICATION_TYPE":"U","NORAD_CAT_ID":60554,"ELEMENT_SET_NO":999,"REV_AT_EPOCH":8918,"BSTAR":0.00044255,"MEAN_MOTION_DOT":5.544e-5,"MEAN_MOTION_DDOT":0},{"OBJECT_NAME":"UM5-EOSAT","OBJECT_ID":"2024-149CR","EPOCH":"2026-04-04T17:19:47.383680","MEAN_MOTION":15.01097013,"ECCENTRICITY":0.0005387,"INCLINATION":97.6745,"RA_OF_ASC_NODE":174.3798,"ARG_OF_PERICENTER":24.5896,"MEAN_ANOMALY":335.5584,"EPHEMERIS_TYPE":0,"CLASSIFICATION_TYPE":"U","NORAD_CAT_ID":60555,"ELEMENT_SET_NO":999,"REV_AT_EPOCH":8919,"BSTAR":0.00042097,"MEAN_MOTION_DOT":5.33e-5,"MEAN_MOTION_DDOT":0},{"OBJECT_NAME":"LASARSAT","OBJECT_ID":"2024-247Q","EPOCH":"2026-04-04T00:44:37.904064","MEAN_MOTION":15.42003564,"ECCENTRICITY":0.00053797,"INCLINATION":44.9765,"RA_OF_ASC_NODE":317.4987,"ARG_OF_PERICENTER":237.3439,"MEAN_ANOMALY":122.693,"EPHEMERIS_TYPE":0,"CLASSIFICATION_TYPE":"U","NORAD_CAT_ID":62391,"ELEMENT_SET_NO":999,"REV_AT_EPOCH":7185,"BSTAR":0.0012739779,"MEAN_MOTION_DOT":0.00055577,"MEAN_MOTION_DDOT":0},{"OBJECT_NAME":"CROCUBE","OBJECT_ID":"2024-247T","EPOCH":"2026-04-04T07:11:07.183680","MEAN_MOTION":15.43357359,"ECCENTRICITY":0.00049925,"INCLINATION":44.9737,"RA_OF_ASC_NODE":314.3461,"ARG_OF_PERICENTER":237.087,"MEAN_ANOMALY":122.9538,"EPHEMERIS_TYPE":0,"CLASSIFICATION_TYPE":"U","NORAD_CAT_ID":62394,"ELEMENT_SET_NO":999,"REV_AT_EPOCH":7191,"BSTAR":0.0012327876,"MEAN_MOTION_DOT":0.00056286,"MEAN_MOTION_DDOT":0},{"OBJECT_NAME":"TEVEL2-4","OBJECT_ID":"2025-052D","EPOCH":"2026-04-04T16:46:33.853152","MEAN_MOTION":15.32109366,"ECCENTRICITY":0.0003578,"INCLINATION":97.3985,"RA_OF_ASC_NODE":351.0809,"ARG_OF_PERICENTER":46.9615,"MEAN_ANOMALY":313.1926,"EPHEMERIS_TYPE":0,"CLASSIFICATION_TYPE":"U","NORAD_CAT_ID":63213,"ELEMENT_SET_NO":999,"REV_AT_EPOCH":5885,"BSTAR":0.00088736,"MEAN_MOTION_DOT":0.00027504,"MEAN_MOTION_DDOT":0},{"OBJECT_NAME":"TEVEL2-5","OBJECT_ID":"2025-052E","EPOCH":"2026-04-04T15:31:24.846240","MEAN_MOTION":15.3196945,"ECCENTRICITY":0.0003578,"INCLINATION":97.3983,"RA_OF_ASC_NODE":350.9953,"ARG_OF_PERICENTER":47.0609,"MEAN_ANOMALY":313.0932,"EPHEMERIS_TYPE":0,"CLASSIFICATION_TYPE":"U","NORAD_CAT_ID":63214,"ELEMENT_SET_NO":999,"REV_AT_EPOCH":5884,"BSTAR":0.00088554,"MEAN_MOTION_DOT":0.00027327,"MEAN_MOTION_DDOT":0},{"OBJECT_NAME":"TEVEL2-6","OBJECT_ID":"2025-052F","EPOCH":"2026-04-04T15:46:33.052800","MEAN_MOTION":15.31928983,"ECCENTRICITY":0.0003634,"INCLINATION":97.3984,"RA_OF_ASC_NODE":350.9916,"ARG_OF_PERICENTER":46.301,"MEAN_ANOMALY":313.8532,"EPHEMERIS_TYPE":0,"CLASSIFICATION_TYPE":"U","NORAD_CAT_ID":63215,"ELEMENT_SET_NO":999,"REV_AT_EPOCH":5884,"BSTAR":0.00089981,"MEAN_MOTION_DOT":0.00027736,"MEAN_MOTION_DDOT":0},{"OBJECT_NAME":"TEVEL2-1","OBJECT_ID":"2025-052H","EPOCH":"2026-04-04T15:54:37.111392","MEAN_MOTION":15.31476241,"ECCENTRICITY":0.0004097,"INCLINATION":97.3958,"RA_OF_ASC_NODE":350.7028,"ARG_OF_PERICENTER":54.5706,"MEAN_ANOMALY":305.5918,"EPHEMERIS_TYPE":0,"CLASSIFICATION_TYPE":"U","NORAD_CAT_ID":63217,"ELEMENT_SET_NO":999,"REV_AT_EPOCH":5883,"BSTAR":0.00088559,"MEAN_MOTION_DOT":0.00026913,"MEAN_MOTION_DDOT":0},{"OBJECT_NAME":"TEVEL2-3","OBJECT_ID":"2025-052J","EPOCH":"2026-04-04T15:50:12.094944","MEAN_MOTION":15.31518198,"ECCENTRICITY":0.0004158,"INCLINATION":97.3959,"RA_OF_ASC_NODE":350.7137,"ARG_OF_PERICENTER":54.5708,"MEAN_ANOMALY":305.5921,"EPHEMERIS_TYPE":0,"CLASSIFICATION_TYPE":"U","NORAD_CAT_ID":63218,"ELEMENT_SET_NO":999,"REV_AT_EPOCH":5883,"BSTAR":0.0008791,"MEAN_MOTION_DOT":0.00026749,"MEAN_MOTION_DDOT":0},{"OBJECT_NAME":"TEVEL2-2","OBJECT_ID":"2025-052K","EPOCH":"2026-04-04T15:55:29.564832","MEAN_MOTION":15.31481084,"ECCENTRICITY":0.0004132,"INCLINATION":97.3959,"RA_OF_ASC_NODE":350.7046,"ARG_OF_PERICENTER":54.9842,"MEAN_ANOMALY":305.1787,"EPHEMERIS_TYPE":0,"CLASSIFICATION_TYPE":"U","NORAD_CAT_ID":63219,"ELEMENT_SET_NO":999,"REV_AT_EPOCH":5883,"BSTAR":0.00089818,"MEAN_MOTION_DOT":0.00027302,"MEAN_MOTION_DDOT":0},{"OBJECT_NAME":"TEVEL2-9","OBJECT_ID":"2025-052AD","EPOCH":"2026-04-04T14:47:20.715072","MEAN_MOTION":15.29687959,"ECCENTRICITY":0.0007944,"INCLINATION":97.4026,"RA_OF_ASC_NODE":350.1795,"ARG_OF_PERICENTER":54.2132,"MEAN_ANOMALY":305.9845,"EPHEMERIS_TYPE":0,"CLASSIFICATION_TYPE":"U","NORAD_CAT_ID":63237,"ELEMENT_SET_NO":999,"REV_AT_EPOCH":5877,"BSTAR":0.00085882,"MEAN_MOTION_DOT":0.00024702,"MEAN_MOTION_DDOT":0},{"OBJECT_NAME":"TEVEL2-7","OBJECT_ID":"2025-052AE","EPOCH":"2026-04-04T15:27:52.996896","MEAN_MOTION":15.29449616,"ECCENTRICITY":0.000801,"INCLINATION":97.402,"RA_OF_ASC_NODE":350.1521,"ARG_OF_PERICENTER":54.9059,"MEAN_ANOMALY":305.2931,"EPHEMERIS_TYPE":0,"CLASSIFICATION_TYPE":"U","NORAD_CAT_ID":63238,"ELEMENT_SET_NO":999,"REV_AT_EPOCH":5877,"BSTAR":0.00085708,"MEAN_MOTION_DOT":0.00024472,"MEAN_MOTION_DDOT":0},{"OBJECT_NAME":"TEVEL2-8","OBJECT_ID":"2025-052AF","EPOCH":"2026-04-04T15:38:30.956352","MEAN_MOTION":15.29428859,"ECCENTRICITY":0.0008008,"INCLINATION":97.4019,"RA_OF_ASC_NODE":350.1392,"ARG_OF_PERICENTER":55.4386,"MEAN_ANOMALY":304.7609,"EPHEMERIS_TYPE":0,"CLASSIFICATION_TYPE":"U","NORAD_CAT_ID":63239,"ELEMENT_SET_NO":999,"REV_AT_EPOCH":5877,"BSTAR":0.00086447,"MEAN_MOTION_DOT":0.00024668,"MEAN_MOTION_DDOT":0},{"OBJECT_NAME":"HADES-ICM","OBJECT_ID":"2025-052BN","EPOCH":"2026-04-04T15:46:44.436864","MEAN_MOTION":15.66745163,"ECCENTRICITY":0.0006332,"INCLINATION":97.3881,"RA_OF_ASC_NODE":356.2102,"ARG_OF_PERICENTER":75.7358,"MEAN_ANOMALY":284.4605,"EPHEMERIS_TYPE":0,"CLASSIFICATION_TYPE":"U","NORAD_CAT_ID":63492,"ELEMENT_SET_NO":999,"REV_AT_EPOCH":5919,"BSTAR":0.0024298,"MEAN_MOTION_DOT":0.00263226,"MEAN_MOTION_DDOT":0},{"OBJECT_NAME":"FORESAIL-1 PRIME","OBJECT_ID":"2025-276DS","EPOCH":"2026-04-04T18:41:14.872704","MEAN_MOTION":15.18033653,"ECCENTRICITY":0.0002822,"INCLINATION":97.4233,"RA_OF_ASC_NODE":169.4181,"ARG_OF_PERICENTER":37.9013,"MEAN_ANOMALY":322.2419,"EPHEMERIS_TYPE":0,"CLASSIFICATION_TYPE":"U","NORAD_CAT_ID":66778,"ELEMENT_SET_NO":999,"REV_AT_EPOCH":1926,"BSTAR":0.00038897,"MEAN_MOTION_DOT":7.853e-5,"MEAN_MOTION_DDOT":0}]
