UM5-RIBAT               
1 60554U 24149CQ  26094.80204200  .00005544  00000+0  44255-3 0  9997
2 60554  97.6705 173.5860 0000768  73.6568 286.4741 15.00676489 89186
UM5-EOSAT               
1 60555U 24149CR  26094.72207620  .00005330  00000+0  42097-3 0  9993
2 60555  97.6745 174.3798 0005387  24.5896 335.5584 15.01097013 89194
LASARSAT                
1 62391U 24247Q   26094.03099426  .00055577  00000+0  12740-2 0  9998
2 62391  44.9765 317.4987 0005379 237.3439 122.6930 15.42003564 71856
CROCUBE                 
1 62394U 24247T   26094.29938870  .00056286  00000+0  12328-2 0  9994
2 62394  44.9737 314.3461 0004992 237.0870 122.9538 15.43357359 71916
TEVEL2-4                
1 63213U 25052D   26094.69900293  .00027504  00000+0  88736-3 0  9990
2 63213  97.3985 351.0809 0003578  46.9615 313.1926 15.32109366 58855
TEVEL2-5                
1 63214U 25052E   26094.64681535  .00027327  00000+0  88554-3 0  9992
2 63214  97.3983 350.9953 0003578  47.0609 313.0932 15.31969450 58849
TEVEL2-6                
1 63215U 25052F   26094.65732700  .00027736  00000+0  89981-3 0  9994
2 63215  97.3984 350.9916 0003634  46.3010 313.8532 15.31928983 58841
TEVEL2-1                
1 63217U 25052H   26094.66292953  .00026913  00000+0  88559-3 0  9994
2 63217  97.3958 350.7028 0004097  54.5706 305.5918 15.31476241 58833
TEVEL2-3                
1 63218U 25052J   26094.65986221  .00026749  00000+0  87910-3 0  9999
2 63218  97.3959 350.7137 0004158  54.5708 305.5921 15.31518198 58838
TEVEL2-2                
1 63219U 25052K   26094.66353663  .00027302  00000+0  89818-3 0  9994
2 63219  97.3959 350.7046 0004132  54.9842 305.1787 15.31481084 58832
TEVEL2-9                
1 63237U 25052AD  26094.61621198  .00024702  00000+0  85882-3 0  9998
2 63237  97.4026 350.1795 0007944  54.2132 305.9845 15.29687959 58774
TEVEL2-7                
1 63238U 25052AE  26094.64436339  .00024472  00000+0  85708-3 0  9994
2 63238  97.4020 350.1521 0008010  54.9059 305.2931 15.29449616 58771
TEVEL2-8                
1 63239U 25052AF  26094.65174718  .00024668  00000+0  86447-3 0  9994
2 63239  97.4019 350.1392 0008008  55.4386 304.7609 15.29428859 58774
HADES-ICM               
1 63492U 25052BN  26094.65745876  .00263226  00000+0  24298-2 0  9994
2 63492  97.3881 356.2102 0006332  75.7358 284.4605 15.66745163 59197
FORESAIL-1 PRIME        
1 66778U 25276DS  26094.77864436  .00007853  00000+0  38897-3 0  9992
2 66778  97.4233 169.4181 0002822  37.9013 322.2419 15.18033653 19267
